[
    {
        "Altitude(m)": 707487.2089518285,
        "Argument of Periapsis(deg)": 0.006834072711976239,
        "Eccentricity": 0.0,
        "Inclination(deg)": 45.0,
        "Latitude(deg)": -18.073213181176612,
        "Longitude(deg)": 135.60771171176714,
        "Mean Anomaly(deg)": -25.807370011511527,
        "RAAN(deg)": 254.99354883512513,
        "Satellite Name": "Constellation 1 1142",
        "Satellite Number": 1142,
        "Semi-Major Axis(m)": 7083131.272910544,
        "Time(s)": 114
    },
    {
        "Altitude(m)": 707474.5342873425,
        "Argument of Periapsis(deg)": 0.006894020718221645,
        "Eccentricity": 0.0,
        "Inclination(deg)": 45.0,
        "Latitude(deg)": -18.032407163677508,
        "Longitude(deg)": 135.65093935027303,
        "Mean Anomaly(deg)": -25.74666887126164,
        "RAAN(deg)": 254.99349224595952,
        "Satellite Name": "Constellation 1 1142",
        "Satellite Number": 1142,
        "Semi-Major Axis(m)": 7083131.272910544,
        "Time(s)": 115
    },
    {
        "Altitude(m)": 707461.8697814308,
        "Argument of Periapsis(deg)": 0.006953968724467052,
        "Eccentricity": 0.0,
        "Inclination(deg)": 45.0,
        "Latitude(deg)": -17.991589306393376,
        "Longitude(deg)": 135.69414529765618,
        "Mean Anomaly(deg)": -25.6859677310117,
        "RAAN(deg)": 254.99343565679393,
        "Satellite Name": "Constellation 1 1142",
        "Satellite Number": 1142,
        "Semi-Major Axis(m)": 7083131.272910544,
        "Time(s)": 116
    },
    {
        "Altitude(m)": 707449.2154741959,
        "Argument of Periapsis(deg)": 0.007013916730712457,
        "Eccentricity": 0.0,
        "Inclination(deg)": 45.0,
        "Latitude(deg)": -17.95075964275347,
        "Longitude(deg)": 135.7373296103083,
        "Mean Anomaly(deg)": -25.625266590761765,
        "RAAN(deg)": 254.99337906762838,
        "Satellite Name": "Constellation 1 1142",
        "Satellite Number": 1142,
        "Semi-Major Axis(m)": 7083131.272910544,
        "Time(s)": 117
    },
    {
        "Altitude(m)": 707436.5714056845,
        "Argument of Periapsis(deg)": 0.007073864736957864,
        "Eccentricity": 0.0,
        "Inclination(deg)": 45.0,
        "Latitude(deg)": -17.909918206145036,
        "Longitude(deg)": 135.78049234459107,
        "Mean Anomaly(deg)": -25.56456545051198,
        "RAAN(deg)": 254.99332247846283,
        "Satellite Name": "Constellation 1 1142",
        "Satellite Number": 1142,
        "Semi-Major Axis(m)": 7083131.272910544,
        "Time(s)": 118
    },
    {
        "Altitude(m)": 707423.9376158897,
        "Argument of Periapsis(deg)": 0.0071338127432032696,
        "Eccentricity": 0.0,
        "Inclination(deg)": 45.0,
        "Latitude(deg)": -17.869065029912747,
        "Longitude(deg)": 135.82363338873986,
        "Mean Anomaly(deg)": -25.503864310262045,
        "RAAN(deg)": 254.99326588929728,
        "Satellite Name": "Constellation 1 1142",
        "Satellite Number": 1142,
        "Semi-Major Axis(m)": 7083131.272910544,
        "Time(s)": 119
    },
    {
        "Altitude(m)": 707411.3141447544,
        "Argument of Periapsis(deg)": 0.007193760749448674,
        "Eccentricity": 0.0,
        "Inclination(deg)": 45.0,
        "Latitude(deg)": -17.828200147360338,
        "Longitude(deg)": 135.86675313525058,
        "Mean Anomaly(deg)": -25.443163170012056,
        "RAAN(deg)": 254.99320930013164,
        "Satellite Name": "Constellation 1 1142",
        "Satellite Number": 1142,
        "Semi-Major Axis(m)": 7083131.272910544,
        "Time(s)": 120
    },
    {
        "Altitude(m)": 707398.7010321659,
        "Argument of Periapsis(deg)": 0.007253708755694079,
        "Eccentricity": 0.0,
        "Inclination(deg)": 45.0,
        "Latitude(deg)": -17.787323591749285,
        "Longitude(deg)": 135.90985147229847,
        "Mean Anomaly(deg)": -25.38246202976227,
        "RAAN(deg)": 254.9931527109661,
        "Satellite Name": "Constellation 1 1142",
        "Satellite Number": 1142,
        "Semi-Major Axis(m)": 7083131.272910544,
        "Time(s)": 121
    },
    {
        "Altitude(m)": 707386.0983179489,
        "Argument of Periapsis(deg)": 0.0073136567619394854,
        "Eccentricity": 0.0,
        "Inclination(deg)": 45.0,
        "Latitude(deg)": -17.746435396299155,
        "Longitude(deg)": 135.95292845612605,
        "Mean Anomaly(deg)": -25.321760889512333,
        "RAAN(deg)": 254.99309612180053,
        "Satellite Name": "Constellation 1 1142",
        "Satellite Number": 1142,
        "Semi-Major Axis(m)": 7083131.272910544,
        "Time(s)": 122
    },
    {
        "Altitude(m)": 707373.5060418787,
        "Argument of Periapsis(deg)": 0.0073736047681848904,
        "Eccentricity": 0.0,
        "Inclination(deg)": 45.0,
        "Latitude(deg)": -17.705535594188373,
        "Longitude(deg)": 135.99598414294556,
        "Mean Anomaly(deg)": -25.261059749262394,
        "RAAN(deg)": 254.99303953263498,
        "Satellite Name": "Constellation 1 1142",
        "Satellite Number": 1142,
        "Semi-Major Axis(m)": 7083131.272910544,
        "Time(s)": 123
    },
    {
        "Altitude(m)": 707360.9242436871,
        "Argument of Periapsis(deg)": 0.007433552774430298,
        "Eccentricity": 0.0,
        "Inclination(deg)": 45.0,
        "Latitude(deg)": -17.664624218553804,
        "Longitude(deg)": 136.03901858893946,
        "Mean Anomaly(deg)": -25.200358609012458,
        "RAAN(deg)": 254.99298294346943,
        "Satellite Name": "Constellation 1 1142",
        "Satellite Number": 1142,
        "Semi-Major Axis(m)": 7083131.272910544,
        "Time(s)": 124
    },
    {
        "Altitude(m)": 707348.3529630278,
        "Argument of Periapsis(deg)": 0.007493500780675703,
        "Eccentricity": 0.0,
        "Inclination(deg)": 45.0,
        "Latitude(deg)": -17.623701302491142,
        "Longitude(deg)": 136.08203185025994,
        "Mean Anomaly(deg)": -25.139657468762675,
        "RAAN(deg)": 254.99292635430388,
        "Satellite Name": "Constellation 1 1142",
        "Satellite Number": 1142,
        "Semi-Major Axis(m)": 7083131.272910544,
        "Time(s)": 125
    },
    {
        "Altitude(m)": 707335.792239519,
        "Argument of Periapsis(deg)": 0.007553448786921108,
        "Eccentricity": 0.0,
        "Inclination(deg)": 45.0,
        "Latitude(deg)": -17.582766879054272,
        "Longitude(deg)": 136.12502381493277,
        "Mean Anomaly(deg)": -25.07895632851269,
        "RAAN(deg)": 254.99286976513824,
        "Satellite Name": "Constellation 1 1142",
        "Satellite Number": 1142,
        "Semi-Major Axis(m)": 7083131.272910544,
        "Time(s)": 126
    },
    {
        "Altitude(m)": 707323.242112711,
        "Argument of Periapsis(deg)": 0.007613396793166514,
        "Eccentricity": 0.0,
        "Inclination(deg)": 45.0,
        "Latitude(deg)": -17.54182098125716,
        "Longitude(deg)": 136.16799487524406,
        "Mean Anomaly(deg)": -25.01825518826285,
        "RAAN(deg)": 254.99281317597269,
        "Satellite Name": "Constellation 1 1142",
        "Satellite Number": 1142,
        "Semi-Major Axis(m)": 7083131.272910544,
        "Time(s)": 127
    },
    {
        "Altitude(m)": 707310.7026221077,
        "Argument of Periapsis(deg)": 0.007673344799411918,
        "Eccentricity": 0.0,
        "Inclination(deg)": 45.0,
        "Latitude(deg)": -17.500863642071806,
        "Longitude(deg)": 136.21094491915923,
        "Mean Anomaly(deg)": -24.957554048012963,
        "RAAN(deg)": 254.99275658680713,
        "Satellite Name": "Constellation 1 1142",
        "Satellite Number": 1142,
        "Semi-Major Axis(m)": 7083131.272910544,
        "Time(s)": 128
    },
    {
        "Altitude(m)": 707298.1738071493,
        "Argument of Periapsis(deg)": 0.007733292805657325,
        "Eccentricity": 0.0,
        "Inclination(deg)": 45.0,
        "Latitude(deg)": -17.459894894429638,
        "Longitude(deg)": 136.25387400271063,
        "Mean Anomaly(deg)": -24.896852907763027,
        "RAAN(deg)": 254.99269999764158,
        "Satellite Name": "Constellation 1 1142",
        "Satellite Number": 1142,
        "Semi-Major Axis(m)": 7083131.272910544,
        "Time(s)": 129
    },
    {
        "Altitude(m)": 707285.6557072245,
        "Argument of Periapsis(deg)": 0.00779324081190273,
        "Eccentricity": 0.0,
        "Inclination(deg)": 45.0,
        "Latitude(deg)": -17.418914771221402,
        "Longitude(deg)": 136.29678218190037,
        "Mean Anomaly(deg)": -24.836151767513087,
        "RAAN(deg)": 254.99264340847603,
        "Satellite Name": "Constellation 1 1142",
        "Satellite Number": 1142,
        "Semi-Major Axis(m)": 7083131.272910544,
        "Time(s)": 130
    },
    {
        "Altitude(m)": 707273.148361667,
        "Argument of Periapsis(deg)": 0.007853188818148135,
        "Eccentricity": 0.0,
        "Inclination(deg)": 45.0,
        "Latitude(deg)": -17.377923305297333,
        "Longitude(deg)": 136.3396695127003,
        "Mean Anomaly(deg)": -24.775450627263304,
        "RAAN(deg)": 254.9925868193104,
        "Satellite Name": "Constellation 1 1142",
        "Satellite Number": 1142,
        "Semi-Major Axis(m)": 7083131.272910544,
        "Time(s)": 131
    },
    {
        "Altitude(m)": 707260.6518097479,
        "Argument of Periapsis(deg)": 0.007913136824393542,
        "Eccentricity": 0.0,
        "Inclination(deg)": 45.0,
        "Latitude(deg)": -17.33692052946678,
        "Longitude(deg)": 136.3825360510528,
        "Mean Anomaly(deg)": -24.714749487013318,
        "RAAN(deg)": 254.99253023014484,
        "Satellite Name": "Constellation 1 1142",
        "Satellite Number": 1142,
        "Semi-Major Axis(m)": 7083131.272910544,
        "Time(s)": 132
    }
]